start=new Date('2022-01-21T00:00:00.000Z').valueOf();
sats=[{"APOAPSIS":"548.240","NORAD_CAT_ID":"47607","ECCENTRICITY":"0.00015360","DECAY_DATE":null,"EPOCH":"2022-01-20T12:21:43.274016","OBJECT_NAME":"STARLINK-2025","EPHEMERIS_TYPE":"0","OBJECT_ID":"2021-009BM","MEAN_MOTION_DDOT":"0.0000000000000","ELEMENT_SET_NO":"999","MEAN_ANOMALY":"296.9949","REF_FRAME":"TEME","SEMIMAJOR_AXIS":"6925.311","COUNTRY_CODE":"US","PERIOD":"95.591","TIME_SYSTEM":"UTC","LAUNCH_DATE":"2021-02-04","RCS_SIZE":"LARGE","ARG_OF_PERICENTER":"63.1197","CENTER_NAME":"EARTH","OBJECT_TYPE":"PAYLOAD","RA_OF_ASC_NODE":"306.5634","REV_AT_EPOCH":"5346","FILE":"3278533","MEAN_MOTION_DOT":"0.00008731","BSTAR":"0.00060411000000","GP_ID":"194261060","CLASSIFICATION_TYPE":"U","TLE_LINE2":"2 47607  53.0529 306.5634 0001536  63.1197 296.9949 15.06412324 53463","MEAN_ELEMENT_THEORY":"SGP4","INCLINATION":"53.0529","SITE":"AFETR","PERIAPSIS":"546.112","MEAN_MOTION":"15.06412324","TLE_LINE1":"1 47607U 21009BM  22020.51508419  .00008731  00000-0  60411-3 0  9999"},{"MEAN_ELEMENT_THEORY":"SGP4","TLE_LINE2":"2 47620  53.0555   7.3880 0001429  70.1886 289.9257 15.06397092 52489","CLASSIFICATION_TYPE":"U","INCLINATION":"53.0555","SITE":"AFETR","PERIAPSIS":"546.233","MEAN_MOTION":"15.06397092","TLE_LINE1":"1 47620U 21012A   22020.33261949  .00003380  00000-0  24569-3 0  9991","MEAN_MOTION_DOT":"0.00003380","GP_ID":"194260306","BSTAR":"0.00024569000000","LAUNCH_DATE":"2021-02-16","ARG_OF_PERICENTER":"70.1886","RCS_SIZE":"LARGE","CENTER_NAME":"EARTH","RA_OF_ASC_NODE":"7.3880","OBJECT_TYPE":"PAYLOAD","REV_AT_EPOCH":"5248","FILE":"3278533","SEMIMAJOR_AXIS":"6925.357","COUNTRY_CODE":"US","PERIOD":"95.592","TIME_SYSTEM":"UTC","OBJECT_ID":"2021-012A","MEAN_MOTION_DDOT":"0.0000000000000","ELEMENT_SET_NO":"999","MEAN_ANOMALY":"289.9257","REF_FRAME":"TEME","OBJECT_NAME":"STARLINK-1528","EPHEMERIS_TYPE":"0","APOAPSIS":"548.212","NORAD_CAT_ID":"47620","ECCENTRICITY":"0.00014290","DECAY_DATE":null,"EPOCH":"2022-01-20T07:58:58.323936"},{"MEAN_MOTION":"15.06408884","TLE_LINE1":"1 47621U 21012B   22020.32525356  .00007887  00000-0  54764-3 0  9992","CLASSIFICATION_TYPE":"U","TLE_LINE2":"2 47621  53.0560   7.4221 0001628  59.2345 300.8804 15.06408884 52499","MEAN_ELEMENT_THEORY":"SGP4","SITE":"AFETR","INCLINATION":"53.0560","PERIAPSIS":"546.059","GP_ID":"194261061","BSTAR":"0.00054764000000","MEAN_MOTION_DOT":"0.00007887","RA_OF_ASC_NODE":"7.4221","OBJECT_TYPE":"PAYLOAD","REV_AT_EPOCH":"5249","FILE":"3278533","LAUNCH_DATE":"2021-02-16","ARG_OF_PERICENTER":"59.2345","RCS_SIZE":"LARGE","CENTER_NAME":"EARTH","PERIOD":"95.592","TIME_SYSTEM":"UTC","SEMIMAJOR_AXIS":"6925.321","COUNTRY_CODE":"US","MEAN_ANOMALY":"300.8804","REF_FRAME":"TEME","OBJECT_ID":"2021-012B","MEAN_MOTION_DDOT":"0.0000000000000","ELEMENT_SET_NO":"999","OBJECT_NAME":"STARLINK-1609","EPHEMERIS_TYPE":"0","NORAD_CAT_ID":"47621","ECCENTRICITY":"0.00016280","DECAY_DATE":null,"EPOCH":"2022-01-20T07:48:21.907584","APOAPSIS":"548.314"},{"RA_OF_ASC_NODE":"7.1300","OBJECT_TYPE":"PAYLOAD","REV_AT_EPOCH":"5249","FILE":"3278533","LAUNCH_DATE":"2021-02-16","RCS_SIZE":"LARGE","ARG_OF_PERICENTER":"60.6687","CENTER_NAME":"EARTH","PERIOD":"95.592","TIME_SYSTEM":"UTC","SEMIMAJOR_AXIS":"6925.360","COUNTRY_CODE":"US","MEAN_MOTION":"15.06396229","TLE_LINE1":"1 47622U 21012C   22020.38790794  .00003227  00000-0  23549-3 0  9990","TLE_LINE2":"2 47622  53.0563   7.1300 0001698  60.6687 299.4471 15.06396229 52492","CLASSIFICATION_TYPE":"U","MEAN_ELEMENT_THEORY":"SGP4","INCLINATION":"53.0563","SITE":"AFETR","PERIAPSIS":"546.049","GP_ID":"194261313","BSTAR":"0.00023549000000","MEAN_MOTION_DOT":"0.00003227","NORAD_CAT_ID":"47622","ECCENTRICITY":"0.00016980","DECAY_DATE":null,"EPOCH":"2022-01-20T09:18:35.246016","APOAPSIS":"548.401","MEAN_ANOMALY":"299.4471","REF_FRAME":"TEME","OBJECT_ID":"2021-012C","MEAN_MOTION_DDOT":"0.0000000000000","ELEMENT_SET_NO":"999","OBJECT_NAME":"STARLINK-1645","EPHEMERIS_TYPE":"0"},{"OBJECT_TYPE":"PAYLOAD","RA_OF_ASC_NODE":"301.7858","REV_AT_EPOCH":"5342","FILE":"3278533","LAUNCH_DATE":"2021-02-16","RCS_SIZE":"LARGE","ARG_OF_PERICENTER":"53.5387","CENTER_NAME":"EARTH","PERIOD":"95.592","TIME_SYSTEM":"UTC","SEMIMAJOR_AXIS":"6925.326","COUNTRY_CODE":"US","MEAN_MOTION":"15.06407337","TLE_LINE1":"1 47623U 21012D   22020.46577411  .00002267  00000-0  17104-3 0  9992","TLE_LINE2":"2 47623  53.0556 301.7858 0001694  53.5387 306.5758 15.06407337 53425","MEAN_ELEMENT_THEORY":"SGP4","CLASSIFICATION_TYPE":"U","SITE":"AFETR","INCLINATION":"53.0556","PERIAPSIS":"546.018","GP_ID":"194259560","BSTAR":"0.00017104000000","MEAN_MOTION_DOT":"0.00002267","NORAD_CAT_ID":"47623","ECCENTRICITY":"0.00016940","DECAY_DATE":null,"EPOCH":"2022-01-20T11:10:42.883104","APOAPSIS":"548.364","MEAN_ANOMALY":"306.5758","REF_FRAME":"TEME","OBJECT_ID":"2021-012D","MEAN_MOTION_DDOT":"0.0000000000000","ELEMENT_SET_NO":"999","OBJECT_NAME":"STARLINK-1655","EPHEMERIS_TYPE":"0"},{"APOAPSIS":"548.263","DECAY_DATE":null,"EPOCH":"2022-01-20T14:13:09.802848","NORAD_CAT_ID":"47624","ECCENTRICITY":"0.00015460","EPHEMERIS_TYPE":"0","OBJECT_NAME":"STARLINK-1669","ELEMENT_SET_NO":"999","OBJECT_ID":"2021-012E","MEAN_MOTION_DDOT":"0.0000000000000","MEAN_ANOMALY":"294.2030","REF_FRAME":"TEME","COUNTRY_CODE":"US","SEMIMAJOR_AXIS":"6925.327","PERIOD":"95.592","TIME_SYSTEM":"UTC","CENTER_NAME":"EARTH","LAUNCH_DATE":"2021-02-16","ARG_OF_PERICENTER":"65.9121","RCS_SIZE":"LARGE","REV_AT_EPOCH":"5282","FILE":"3278533","OBJECT_TYPE":"PAYLOAD","RA_OF_ASC_NODE":"346.2189","MEAN_MOTION_DOT":"0.00003211","BSTAR":"0.00023431000000","GP_ID":"194259806","INCLINATION":"53.0564","SITE":"AFETR","PERIAPSIS":"546.122","TLE_LINE2":"2 47624  53.0564 346.2189 0001546  65.9121 294.2030 15.06406976 52822","CLASSIFICATION_TYPE":"U","MEAN_ELEMENT_THEORY":"SGP4","TLE_LINE1":"1 47624U 21012E   22020.59247457  .00003211  00000-0  23431-3 0  9991","MEAN_MOTION":"15.06406976"},{"APOAPSIS":"548.356","NORAD_CAT_ID":"47625","ECCENTRICITY":"0.00016540","DECAY_DATE":null,"EPOCH":"2022-01-20T11:04:44.286816","OBJECT_ID":"2021-012F","MEAN_MOTION_DDOT":"0.0000000000000","ELEMENT_SET_NO":"999","MEAN_ANOMALY":"290.2617","REF_FRAME":"TEME","OBJECT_NAME":"STARLINK-1704","EPHEMERIS_TYPE":"0","LAUNCH_DATE":"2021-02-16","RCS_SIZE":"LARGE","ARG_OF_PERICENTER":"69.8550","CENTER_NAME":"EARTH","OBJECT_TYPE":"PAYLOAD","RA_OF_ASC_NODE":"6.8073","REV_AT_EPOCH":"5250","FILE":"3278533","SEMIMAJOR_AXIS":"6925.345","COUNTRY_CODE":"US","PERIOD":"95.592","TIME_SYSTEM":"UTC","TLE_LINE2":"2 47625  53.0559   6.8073 0001654  69.8550 290.2617 15.06401010 52503","CLASSIFICATION_TYPE":"U","MEAN_ELEMENT_THEORY":"SGP4","INCLINATION":"53.0559","SITE":"AFETR","PERIAPSIS":"546.065","MEAN_MOTION":"15.06401010","TLE_LINE1":"1 47625U 21012F   22020.46162369  .00001863  00000-0  14395-3 0  9996","MEAN_MOTION_DOT":"0.00001863","BSTAR":"0.00014395000000","GP_ID":"194260561"},{"MEAN_MOTION_DOT":"0.00003483","BSTAR":"0.00025262000000","GP_ID":"194260813","PERIAPSIS":"546.130","SITE":"AFETR","INCLINATION":"53.0581","CLASSIFICATION_TYPE":"U","TLE_LINE2":"2 47626  53.0581   7.1635 0001568  60.5335 299.5810 15.06399277 52496","MEAN_ELEMENT_THEORY":"SGP4","TLE_LINE1":"1 47626U 21012G   22020.38053537  .00003483  00000-0  25262-3 0  9999","MEAN_MOTION":"15.06399277","COUNTRY_CODE":"US","SEMIMAJOR_AXIS":"6925.351","TIME_SYSTEM":"UTC","PERIOD":"95.592","CENTER_NAME":"EARTH","RCS_SIZE":"LARGE","ARG_OF_PERICENTER":"60.5335","LAUNCH_DATE":"2021-02-16","FILE":"3278533","REV_AT_EPOCH":"5249","RA_OF_ASC_NODE":"7.1635","OBJECT_TYPE":"PAYLOAD","EPHEMERIS_TYPE":"0","OBJECT_NAME":"STARLINK-1761","ELEMENT_SET_NO":"999","MEAN_MOTION_DDOT":"0.0000000000000","OBJECT_ID":"2021-012G","REF_FRAME":"TEME","MEAN_ANOMALY":"299.5810","APOAPSIS":"548.302","EPOCH":"2022-01-20T09:07:58.255968","DECAY_DATE":null,"ECCENTRICITY":"0.00015680","NORAD_CAT_ID":"47626"},{"CLASSIFICATION_TYPE":"U","TLE_LINE2":"2 47627  53.0523 271.2547 0001666  68.4475 254.5002 15.06384477 53334","MEAN_ELEMENT_THEORY":"SGP4","PERIAPSIS":"546.107","SITE":"AFETR","INCLINATION":"53.0523","MEAN_MOTION":"15.06384477","TLE_LINE1":"1 47627U 21012H   22020.58334491  .00051718  00000-0  34670-2 0  9999","MEAN_MOTION_DOT":"0.00051718","BSTAR":"0.00346700000000","GP_ID":"194233596","ARG_OF_PERICENTER":"68.4475","RCS_SIZE":"MEDIUM","LAUNCH_DATE":"2021-02-16","CENTER_NAME":"EARTH","RA_OF_ASC_NODE":"271.2547","OBJECT_TYPE":"PAYLOAD","FILE":"3278247","REV_AT_EPOCH":"5333","SEMIMAJOR_AXIS":"6925.396","COUNTRY_CODE":"US","TIME_SYSTEM":"UTC","PERIOD":"95.593","MEAN_MOTION_DDOT":"0.0000000000000","OBJECT_ID":"2021-012H","ELEMENT_SET_NO":"999","REF_FRAME":"TEME","MEAN_ANOMALY":"254.5002","OBJECT_NAME":"STARLINK-1972","EPHEMERIS_TYPE":"0","APOAPSIS":"548.415","ECCENTRICITY":"0.00016660","NORAD_CAT_ID":"47627","EPOCH":"2022-01-20T14:00:01.000224","DECAY_DATE":null},{"APOAPSIS":"548.484","ECCENTRICITY":"0.00018400","NORAD_CAT_ID":"47628","EPOCH":"2022-01-20T16:23:12.723360","DECAY_DATE":null,"OBJECT_NAME":"STARLINK-1973","EPHEMERIS_TYPE":"0","MEAN_MOTION_DDOT":"0.0000000000000","OBJECT_ID":"2021-012J","ELEMENT_SET_NO":"999","REF_FRAME":"TEME","MEAN_ANOMALY":"292.6735","SEMIMAJOR_AXIS":"6925.345","COUNTRY_CODE":"US","TIME_SYSTEM":"UTC","PERIOD":"95.592","RCS_SIZE":"LARGE","ARG_OF_PERICENTER":"67.4449","LAUNCH_DATE":"2021-02-16","CENTER_NAME":"EARTH","OBJECT_TYPE":"PAYLOAD","RA_OF_ASC_NODE":"5.8254","FILE":"3278576","REV_AT_EPOCH":"5202","MEAN_MOTION_DOT":"0.00002129","BSTAR":"0.00016175000000","GP_ID":"194265463","TLE_LINE2":"2 47628  53.0543   5.8254 0001840  67.4449 292.6735 15.06401091 52020","CLASSIFICATION_TYPE":"U","MEAN_ELEMENT_THEORY":"SGP4","PERIAPSIS":"545.936","SITE":"AFETR","INCLINATION":"53.0543","MEAN_MOTION":"15.06401091","TLE_LINE1":"1 47628U 21012J   22020.68278615  .00002129  00000-0  16175-3 0  9999"}];
